{"type":"Feature","properties":{"name":"Airtel House, Morocco","osm_way":367430152,"source":"https://www.openstreetmap.org/way/367430152","attribution":"© OpenStreetMap contributors, ODbL","verified":"2026-09-22","dimensions":"Horizontal geometry from OSM; vertical dimensions are photo-guided estimates"},"geometry":{"type":"Polygon","coordinates":[[[39.2645426,-6.7780383],[39.2648370,-6.7779579],[39.2649400,-6.7777742],[39.2649473,-6.7777619],[39.2649563,-6.7777434],[39.2649542,-6.7777298],[39.2649462,-6.7777167],[39.2649262,-6.7777081],[39.2643932,-6.7777422],[39.2643720,-6.7777514],[39.2643776,-6.7777837],[39.2645426,-6.7780383]]]}}
